STARLINK-36953          
1 68010U 26039AA  26079.50001157 -.01961476  00000+0 -25552-1 0  9993
2 68010  43.0001 348.8803 0001605 262.2571 146.5315 15.61249073  4610
STARLINK-36991          
1 68011U 26039AB  26079.50001157 -.00102186  00000+0 -17534-2 0  9990
2 68011  42.9999 349.9559 0002373 251.2335  82.2271 15.50662560  4619
STARLINK-36936          
1 68012U 26039AC  26079.50001157 -.01850444  00000+0 -32039-1 0  9995
2 68012  42.9999 349.2497 0001142 249.8597   9.5940 15.53545125  4615
STARLINK-36967          
1 68013U 26039AD  26079.50001157  .00042223  00000+0  72287-3 0  9992
2 68013  43.0002 349.8830 0001441 266.7086  96.7657 15.50531754  4616
STARLINK-36985          
1 68014U 26039AE  26079.50001157 -.01959315  00000+0 -25037-1 0  9994
2 68014  43.0001 348.8365 0001686 264.9437 161.0543 15.61735670  4614
STARLINK-36335          
1 68015U 26040A   26079.50001157 -.01910409  00000+0 -13607-1 0  9998
2 68015  97.2821  28.4730 0001740  87.4247  24.0667 15.76954625  4110
STARLINK-36923          
1 68016U 26040B   26079.50001157 -.01324539  00000+0 -94946-2 0  9998
2 68016  97.2825  28.4770 0001507  90.0974  28.1035 15.76204143  4169
STARLINK-36568          
1 68017U 26040C   26079.50001157 -.01236933  00000+0 -89990-2 0  9992
2 68017  97.2823  28.4782 0001520  90.6491  31.6134 15.76130871  4161
STARLINK-36930          
1 68018U 26040D   26079.50001157 -.01452255  00000+0 -10480-1 0  9997
2 68018  97.2818  28.4747 0001591  90.9526  23.1822 15.76307287  4164
STARLINK-36921          
1 68019U 26040E   26079.50001157 -.01936209  00000+0 -13481-1 0  9998
2 68019  97.2844  28.4861 0001719  89.5926  44.9510 15.77508150  4169
STARLINK-36928          
1 68020U 26040F   26079.50001157 -.01946909  00000+0 -13780-1 0  9990
2 68020  97.2844  28.4822 0001593  86.8708  42.3170 15.77162989  4166
STARLINK-36916          
1 68022U 26040H   26079.50001157 -.01873572  00000+0 -13306-1 0  9991
2 68022  97.2822  28.4867 0001613  91.9680  49.4973 15.76956411  4161
STARLINK-36871          
1 68023U 26040J   26079.50001157 -.01489692  00000+0 -10772-1 0  9992
2 68023  97.2820  28.4870 0001771  88.5006  55.6116 15.76335232  4163
STARLINK-36891          
1 68024U 26040K   26079.50001157 -.01369039  00000+0 -98374-2 0  9990
2 68024  97.2822  28.4889 0001814  84.3466  63.8357 15.76234509  4161
STARLINK-36378          
1 68025U 26040L   26079.50001157 -.01354784  00000+0 -97689-2 0  9990
2 68025  97.2834  28.4955 0001496  94.4022  61.8884 15.76130589  4116
