[{"OBJECT_NAME":"STARLINK-36953","OBJECT_ID":"2026-039AA","EPOCH":"2026-03-20T12:00:00.999648","MEAN_MOTION":15.61249073,"ECCENTRICITY":0.00016052,"INCLINATION":43.0001,"RA_OF_ASC_NODE":348.8803,"ARG_OF_PERICENTER":262.2571,"MEAN_ANOMALY":146.5315,"EPHEMERIS_TYPE":0,"CLASSIFICATION_TYPE":"U","NORAD_CAT_ID":68010,"ELEMENT_SET_NO":999,"REV_AT_EPOCH":461,"BSTAR":-0.025551676,"MEAN_MOTION_DOT":-0.01961476,"MEAN_MOTION_DDOT":0},{"OBJECT_NAME":"STARLINK-36991","OBJECT_ID":"2026-039AB","EPOCH":"2026-03-20T12:00:00.999648","MEAN_MOTION":15.5066256,"ECCENTRICITY":0.00023734,"INCLINATION":42.9999,"RA_OF_ASC_NODE":349.9559,"ARG_OF_PERICENTER":251.2335,"MEAN_ANOMALY":82.2271,"EPHEMERIS_TYPE":0,"CLASSIFICATION_TYPE":"U","NORAD_CAT_ID":68011,"ELEMENT_SET_NO":999,"REV_AT_EPOCH":461,"BSTAR":-0.0017533636,"MEAN_MOTION_DOT":-0.00102186,"MEAN_MOTION_DDOT":0},{"OBJECT_NAME":"STARLINK-36936","OBJECT_ID":"2026-039AC","EPOCH":"2026-03-20T12:00:00.999648","MEAN_MOTION":15.53545125,"ECCENTRICITY":0.00011426,"INCLINATION":42.9999,"RA_OF_ASC_NODE":349.2497,"ARG_OF_PERICENTER":249.8597,"MEAN_ANOMALY":9.594,"EPHEMERIS_TYPE":0,"CLASSIFICATION_TYPE":"U","NORAD_CAT_ID":68012,"ELEMENT_SET_NO":999,"REV_AT_EPOCH":461,"BSTAR":-0.032039204,"MEAN_MOTION_DOT":-0.01850444,"MEAN_MOTION_DDOT":0},{"OBJECT_NAME":"STARLINK-36967","OBJECT_ID":"2026-039AD","EPOCH":"2026-03-20T12:00:00.999648","MEAN_MOTION":15.50531754,"ECCENTRICITY":0.00014418,"INCLINATION":43.0002,"RA_OF_ASC_NODE":349.883,"ARG_OF_PERICENTER":266.7086,"MEAN_ANOMALY":96.7657,"EPHEMERIS_TYPE":0,"CLASSIFICATION_TYPE":"U","NORAD_CAT_ID":68013,"ELEMENT_SET_NO":999,"REV_AT_EPOCH":461,"BSTAR":0.00072287008,"MEAN_MOTION_DOT":0.00042223,"MEAN_MOTION_DDOT":0},{"OBJECT_NAME":"STARLINK-36985","OBJECT_ID":"2026-039AE","EPOCH":"2026-03-20T12:00:00.999648","MEAN_MOTION":15.6173567,"ECCENTRICITY":0.00016864,"INCLINATION":43.0001,"RA_OF_ASC_NODE":348.8365,"ARG_OF_PERICENTER":264.9437,"MEAN_ANOMALY":161.0543,"EPHEMERIS_TYPE":0,"CLASSIFICATION_TYPE":"U","NORAD_CAT_ID":68014,"ELEMENT_SET_NO":999,"REV_AT_EPOCH":461,"BSTAR":-0.025036672,"MEAN_MOTION_DOT":-0.01959315,"MEAN_MOTION_DDOT":0},{"OBJECT_NAME":"STARLINK-36335","OBJECT_ID":"2026-040A","EPOCH":"2026-03-20T12:00:00.999648","MEAN_MOTION":15.76954625,"ECCENTRICITY":0.00017402,"INCLINATION":97.2821,"RA_OF_ASC_NODE":28.473,"ARG_OF_PERICENTER":87.4247,"MEAN_ANOMALY":24.0667,"EPHEMERIS_TYPE":0,"CLASSIFICATION_TYPE":"U","NORAD_CAT_ID":68015,"ELEMENT_SET_NO":999,"REV_AT_EPOCH":411,"BSTAR":-0.013606879,"MEAN_MOTION_DOT":-0.01910409,"MEAN_MOTION_DDOT":0},{"OBJECT_NAME":"STARLINK-36923","OBJECT_ID":"2026-040B","EPOCH":"2026-03-20T12:00:00.999648","MEAN_MOTION":15.76204143,"ECCENTRICITY":0.00015075,"INCLINATION":97.2825,"RA_OF_ASC_NODE":28.477,"ARG_OF_PERICENTER":90.0974,"MEAN_ANOMALY":28.1035,"EPHEMERIS_TYPE":0,"CLASSIFICATION_TYPE":"U","NORAD_CAT_ID":68016,"ELEMENT_SET_NO":999,"REV_AT_EPOCH":416,"BSTAR":-0.009494586,"MEAN_MOTION_DOT":-0.01324539,"MEAN_MOTION_DDOT":0},{"OBJECT_NAME":"STARLINK-36568","OBJECT_ID":"2026-040C","EPOCH":"2026-03-20T12:00:00.999648","MEAN_MOTION":15.76130871,"ECCENTRICITY":0.00015206,"INCLINATION":97.2823,"RA_OF_ASC_NODE":28.4782,"ARG_OF_PERICENTER":90.6491,"MEAN_ANOMALY":31.6134,"EPHEMERIS_TYPE":0,"CLASSIFICATION_TYPE":"U","NORAD_CAT_ID":68017,"ELEMENT_SET_NO":999,"REV_AT_EPOCH":416,"BSTAR":-0.0089989556,"MEAN_MOTION_DOT":-0.01236933,"MEAN_MOTION_DDOT":0},{"OBJECT_NAME":"STARLINK-36930","OBJECT_ID":"2026-040D","EPOCH":"2026-03-20T12:00:00.999648","MEAN_MOTION":15.76307287,"ECCENTRICITY":0.00015913,"INCLINATION":97.2818,"RA_OF_ASC_NODE":28.4747,"ARG_OF_PERICENTER":90.9526,"MEAN_ANOMALY":23.1822,"EPHEMERIS_TYPE":0,"CLASSIFICATION_TYPE":"U","NORAD_CAT_ID":68018,"ELEMENT_SET_NO":999,"REV_AT_EPOCH":416,"BSTAR":-0.010480259,"MEAN_MOTION_DOT":-0.01452255,"MEAN_MOTION_DDOT":0},{"OBJECT_NAME":"STARLINK-36921","OBJECT_ID":"2026-040E","EPOCH":"2026-03-20T12:00:00.999648","MEAN_MOTION":15.7750815,"ECCENTRICITY":0.0001719,"INCLINATION":97.2844,"RA_OF_ASC_NODE":28.4861,"ARG_OF_PERICENTER":89.5926,"MEAN_ANOMALY":44.951,"EPHEMERIS_TYPE":0,"CLASSIFICATION_TYPE":"U","NORAD_CAT_ID":68019,"ELEMENT_SET_NO":999,"REV_AT_EPOCH":416,"BSTAR":-0.01348139,"MEAN_MOTION_DOT":-0.01936209,"MEAN_MOTION_DDOT":0},{"OBJECT_NAME":"STARLINK-36928","OBJECT_ID":"2026-040F","EPOCH":"2026-03-20T12:00:00.999648","MEAN_MOTION":15.77162989,"ECCENTRICITY":0.00015936,"INCLINATION":97.2844,"RA_OF_ASC_NODE":28.4822,"ARG_OF_PERICENTER":86.8708,"MEAN_ANOMALY":42.317,"EPHEMERIS_TYPE":0,"CLASSIFICATION_TYPE":"U","NORAD_CAT_ID":68020,"ELEMENT_SET_NO":999,"REV_AT_EPOCH":416,"BSTAR":-0.013779792,"MEAN_MOTION_DOT":-0.01946909,"MEAN_MOTION_DDOT":0},{"OBJECT_NAME":"STARLINK-36916","OBJECT_ID":"2026-040H","EPOCH":"2026-03-20T12:00:00.999648","MEAN_MOTION":15.76956411,"ECCENTRICITY":0.00016138,"INCLINATION":97.2822,"RA_OF_ASC_NODE":28.4867,"ARG_OF_PERICENTER":91.968,"MEAN_ANOMALY":49.4973,"EPHEMERIS_TYPE":0,"CLASSIFICATION_TYPE":"U","NORAD_CAT_ID":68022,"ELEMENT_SET_NO":999,"REV_AT_EPOCH":416,"BSTAR":-0.013305543,"MEAN_MOTION_DOT":-0.01873572,"MEAN_MOTION_DDOT":0},{"OBJECT_NAME":"STARLINK-36871","OBJECT_ID":"2026-040J","EPOCH":"2026-03-20T12:00:00.999648","MEAN_MOTION":15.76335232,"ECCENTRICITY":0.00017719,"INCLINATION":97.282,"RA_OF_ASC_NODE":28.487,"ARG_OF_PERICENTER":88.5006,"MEAN_ANOMALY":55.6116,"EPHEMERIS_TYPE":0,"CLASSIFICATION_TYPE":"U","NORAD_CAT_ID":68023,"ELEMENT_SET_NO":999,"REV_AT_EPOCH":416,"BSTAR":-0.010772404,"MEAN_MOTION_DOT":-0.01489692,"MEAN_MOTION_DDOT":0},{"OBJECT_NAME":"STARLINK-36891","OBJECT_ID":"2026-040K","EPOCH":"2026-03-20T12:00:00.999648","MEAN_MOTION":15.76234509,"ECCENTRICITY":0.00018144,"INCLINATION":97.2822,"RA_OF_ASC_NODE":28.4889,"ARG_OF_PERICENTER":84.3466,"MEAN_ANOMALY":63.8357,"EPHEMERIS_TYPE":0,"CLASSIFICATION_TYPE":"U","NORAD_CAT_ID":68024,"ELEMENT_SET_NO":999,"REV_AT_EPOCH":416,"BSTAR":-0.0098373794,"MEAN_MOTION_DOT":-0.01369039,"MEAN_MOTION_DDOT":0},{"OBJECT_NAME":"STARLINK-36378","OBJECT_ID":"2026-040L","EPOCH":"2026-03-20T12:00:00.999648","MEAN_MOTION":15.76130589,"ECCENTRICITY":0.00014963,"INCLINATION":97.2834,"RA_OF_ASC_NODE":28.4955,"ARG_OF_PERICENTER":94.4022,"MEAN_ANOMALY":61.8884,"EPHEMERIS_TYPE":0,"CLASSIFICATION_TYPE":"U","NORAD_CAT_ID":68025,"ELEMENT_SET_NO":999,"REV_AT_EPOCH":411,"BSTAR":-0.0097689095,"MEAN_MOTION_DOT":-0.01354784,"MEAN_MOTION_DDOT":0}]
